{
  "type": "FeatureCollection",
  "features": [
    {
      "type": "Feature",
      "properties": {
        "norad_id": 50032,
        "name": "COSMOS 1408 DEB",
        "group": "cosmos-1408-debris",
        "lat": 11.172028159031509,
        "lon": -120.05760245666009,
        "alt_km": 424.5914934397915,
        "timestamp": "2025-12-09T21:34:11.678330+00:00",
        "meta_object_name": "COSMOS 1408 DEB",
        "meta_object_id": "1982-092RU",
        "meta_epoch": "2025-12-09T13:04:22.236384",
        "meta_mean_motion": 15.45643279,
        "meta_eccentricity": 0.00149853,
        "meta_inclination": 82.5641,
        "meta_ra_of_asc_node": 61.7833,
        "meta_arg_of_pericenter": 220.8626,
        "meta_mean_anomaly": 139.1501,
        "meta_ephemeris_type": 0,
        "meta_classification_type": "U",
        "meta_norad_cat_id": 50032,
        "meta_element_set_no": 999,
        "meta_rev_at_epoch": 22554,
        "meta_bstar": 0.00015592967,
        "meta_mean_motion_dot": 7.583e-05,
        "meta_mean_motion_ddot": 0,
        "tle_line1": "1 50032U 82092RU  25343.54470181  .00007583  00000+0  15593-3 0  9996",
        "tle_line2": "2 50032  82.5641  61.7833 0014985 220.8626 139.1501 15.45643279225543"
      },
      "geometry": {
        "type": "Point",
        "coordinates": [
          -120.05760245666009,
          11.172028159031509
        ]
      }
    },
    {
      "type": "Feature",
      "properties": {
        "norad_id": 50058,
        "name": "COSMOS 1408 DEB",
        "group": "cosmos-1408-debris",
        "lat": -3.9497803183103897,
        "lon": -107.17251558469964,
        "alt_km": 377.41204694343287,
        "timestamp": "2025-12-09T21:34:11.678352+00:00",
        "meta_object_name": "COSMOS 1408 DEB",
        "meta_object_id": "1982-092SW",
        "meta_epoch": "2025-12-09T06:57:57.674304",
        "meta_mean_motion": 15.63783016,
        "meta_eccentricity": 0.0016385,
        "meta_inclination": 82.6128,
        "meta_ra_of_asc_node": 72.9508,
        "meta_arg_of_pericenter": 110.9292,
        "meta_mean_anomaly": 249.3723,
        "meta_ephemeris_type": 0,
        "meta_classification_type": "U",
        "meta_norad_cat_id": 50058,
        "meta_element_set_no": 999,
        "meta_rev_at_epoch": 22750,
        "meta_bstar": 0.0004022,
        "meta_mean_motion_dot": 0.00037979,
        "meta_mean_motion_ddot": 0,
        "tle_line1": "1 50058U 82092SW  25343.29025086  .00037979  00000+0  40220-3 0  9993",
        "tle_line2": "2 50058  82.6128  72.9508 0016385 110.9292 249.3723 15.63783016227501"
      },
      "geometry": {
        "type": "Point",
        "coordinates": [
          -107.17251558469964,
          -3.9497803183103897
        ]
      }
    },
    {
      "type": "Feature",
      "properties": {
        "norad_id": 50404,
        "name": "COSMOS 1408 DEB",
        "group": "cosmos-1408-debris",
        "lat": 81.86873509571446,
        "lon": -68.53624768197758,
        "alt_km": 579.2995966732824,
        "timestamp": "2025-12-09T21:34:11.678365+00:00",
        "meta_object_name": "COSMOS 1408 DEB",
        "meta_object_id": "1982-092ADS",
        "meta_epoch": "2025-12-09T02:07:31.133856",
        "meta_mean_motion": 15.1299152,
        "meta_eccentricity": 0.01734954,
        "meta_inclination": 82.2038,
        "meta_ra_of_asc_node": 218.7693,
        "meta_arg_of_pericenter": 211.4724,
        "meta_mean_anomaly": 147.6039,
        "meta_ephemeris_type": 0,
        "meta_classification_type": "U",
        "meta_norad_cat_id": 50404,
        "meta_element_set_no": 999,
        "meta_rev_at_epoch": 21138,
        "meta_bstar": 0.0031720673,
        "meta_mean_motion_dot": 0.00081978,
        "meta_mean_motion_ddot": 0,
        "tle_line1": "1 50404U 82092ADS 25343.08855479  .00081978  00000+0  31721-2 0  9995",
        "tle_line2": "2 50404  82.2038 218.7693 0173495 211.4724 147.6039 15.12991520211384"
      },
      "geometry": {
        "type": "Point",
        "coordinates": [
          -68.53624768197758,
          81.86873509571446
        ]
      }
    },
    {
      "type": "Feature",
      "properties": {
        "norad_id": 50621,
        "name": "COSMOS 1408 DEB",
        "group": "cosmos-1408-debris",
        "lat": -80.41489123788385,
        "lon": 26.52885104655284,
        "alt_km": 413.0130554031175,
        "timestamp": "2025-12-09T21:34:11.678377+00:00",
        "meta_object_name": "COSMOS 1408 DEB",
        "meta_object_id": "1982-092ALR",
        "meta_epoch": "2025-12-09T06:30:05.287392",
        "meta_mean_motion": 15.56380529,
        "meta_eccentricity": 0.0028746,
        "meta_inclination": 82.5697,
        "meta_ra_of_asc_node": 77.7916,
        "meta_arg_of_pericenter": 165.1376,
        "meta_mean_anomaly": 195.0731,
        "meta_ephemeris_type": 0,
        "meta_classification_type": "U",
        "meta_norad_cat_id": 50621,
        "meta_element_set_no": 999,
        "meta_rev_at_epoch": 22196,
        "meta_bstar": 0.00049841,
        "meta_mean_motion_dot": 0.00035943,
        "meta_mean_motion_ddot": 0,
        "tle_line1": "1 50621U 82092ALR 25343.27089453  .00035943  00000+0  49841-3 0  9992",
        "tle_line2": "2 50621  82.5697  77.7916 0028746 165.1376 195.0731 15.56380529221966"
      },
      "geometry": {
        "type": "Point",
        "coordinates": [
          26.52885104655284,
          -80.41489123788385
        ]
      }
    }
  ]
}